NORAD_CAT_ID,OBJECT_NAME,OBJECT_TYPE,EPOCH,MEAN_MOTION,ECCENTRICITY,INCLINATION,RA_OF_ASC_NODE,ARG_OF_PERICENTER,MEAN_ANOMALY,BSTAR,MEAN_MOTION_DOT,MEAN_MOTION_DDOT,TLE_LINE0,TLE_LINE1,TLE_LINE2,SEMIMAJOR_AXIS,PERIOD,APOGEE,PERIGEE,DECAYED
53404.0,STARLINK-4509,PAYLOAD,2023-10-10 12:32:31,15.08839226,0.0001269,53.2164,109.7632,91.1822,268.9315,8.2477e-05,1.025e-05,0.0,0 STARLINK-4509,1 53404U 22097S   23283.52258322  .00001025  00000-0  82477-4 0  9993,2 53404  53.2164 109.7632 0001269  91.1822 268.9315 15.08839226 65625,6917.883,95.438,540.626,538.87,0.0
53404.0,STARLINK-4509,PAYLOAD,2023-10-10 18:54:03,15.08844673,0.0001475,53.2151,108.5749,85.567,274.549,0.00015993,2.259e-05,0.0,0 STARLINK-4509,1 53404U 22097S   23283.78754220  .00002259  00000-0  15993-3 0  9997,2 53404  53.2151 108.5749 0001475  85.5670 274.5490 15.08844673 65667,6917.866,95.437,540.751,538.711,0.0
53404.0,STARLINK-4509,PAYLOAD,2023-10-10 22:04:49,15.0885003,0.0001507,53.2157,107.98,81.5923,278.524,0.00014901,2.085e-05,0.0,0 STARLINK-4509,1 53404U 22097S   23283.92001845  .00002085  00000-0  14901-3 0  9996,2 53404  53.2157 107.9800 0001507  81.5923 278.5240 15.08850030 65196,6917.85,95.437,540.757,538.672,0.0
53404.0,STARLINK-4509,PAYLOAD,2023-10-11 12:23:18,15.08836713,0.0001704,53.2171,105.3046,84.7076,275.411,0.00012245,1.661e-05,0.0,0 STARLINK-4509,1 53404U 22097S   23284.51618680  .00001661  00000-0  12245-3 0  9991,2 53404  53.2171 105.3046 0001704  84.7076 275.4110 15.08836713 65283,6917.89,95.438,540.934,538.577,0.0
53404.0,STARLINK-4509,PAYLOAD,2023-10-12 12:14:05,15.08841761,0.0001439,53.2158,100.8434,90.2556,269.8601,0.00010353,1.36e-05,0.0,0 STARLINK-4509,1 53404U 22097S   23285.50978419  .00001360  00000-0  10353-3 0  9994,2 53404  53.2158 100.8434 0001439  90.2556 269.8601 15.08841761 65921,6917.875,95.437,540.735,538.745,0.0
53404.0,STARLINK-4509,PAYLOAD,2023-10-12 18:35:37,15.0884777,0.0001378,53.2151,99.6539,84.0929,276.022,0.00018806,2.707e-05,0.0,0 STARLINK-4509,1 53404U 22097S   23285.77474136  .00002707  00000-0  18806-3 0  9997,2 53404  53.2151  99.6539 0001378  84.0929 276.0220 15.08847770 65475,6917.857,95.437,540.675,538.768,0.0
53404.0,STARLINK-4509,PAYLOAD,2023-10-13 10:29:29,15.08842059,0.0001362,53.215,96.679,82.9467,277.168,0.00014252,1.981e-05,0.0,0 STARLINK-4509,1 53404U 22097S   23286.43714306  .00001981  00000-0  14252-3 0  9991,2 53404  53.2150  96.6790 0001362  82.9467 277.1680 15.08842059 65575,6917.874,95.437,540.681,538.797,0.0
53404.0,STARLINK-4509,PAYLOAD,2023-10-13 16:51:01,15.08840092,0.0001389,53.2151,95.4902,82.4311,277.6839,9.9374e-05,1.294e-05,0.0,0 STARLINK-4509,1 53404U 22097S   23286.70210445  .00001294  00000-0  99374-4 0  9992,2 53404  53.2151  95.4902 0001389  82.4311 277.6839 15.08840092 66106,6917.88,95.438,540.706,538.784,0.0
53404.0,STARLINK-4509,PAYLOAD,2023-10-14 03:58:43,15.08836977,0.0001374,53.2151,93.4086,82.6851,277.4298,0.00030904,4.633e-05,0.0,0 STARLINK-4509,1 53404U 22097S   23287.16578637  .00004633  00000-0  30904-3 0  9996,2 53404  53.2151  93.4086 0001374  82.6851 277.4298 15.08836977 65688,6917.89,95.438,540.705,538.804,0.0
53404.0,STARLINK-4509,PAYLOAD,2023-10-14 21:27:58,15.08844586,0.0001391,53.2169,90.1362,85.3392,274.7759,6.306e-05,7.16e-06,0.0,0 STARLINK-4509,1 53404U 22097S   23287.89442322  .00000716  00000-0  63060-4 0  9995,2 53404  53.2169  90.1362 0001391  85.3392 274.7759 15.08844586 66281,6917.866,95.437,540.694,538.769,0.0
53404.0,STARLINK-4509,PAYLOAD,2023-10-15 10:11:03,15.08836308,0.0001836,53.2165,87.7564,95.5273,264.5929,1.9447e-06,-2.57e-06,0.0,0 STARLINK-4509,1 53404U 22097S   23288.42435170 -.00000257  00000-0  19447-5 0  9990,2 53404  53.2165  87.7564 0001836  95.5273 264.5929 15.08836308 65871,6917.892,95.438,541.027,538.487,0.0
53404.0,STARLINK-4509,PAYLOAD,2023-10-15 13:21:50,15.08833351,0.0001492,53.2162,87.1628,104.8442,255.2715,4.1209e-05,3.68e-06,0.0,0 STARLINK-4509,1 53404U 22097S   23288.55683158  .00000368  00000-0  41209-4 0  9997,2 53404  53.2162  87.1628 0001492 104.8442 255.2715 15.08833351 66385,6917.901,95.438,540.798,538.734,0.0
53404.0,STARLINK-4509,PAYLOAD,2023-10-15 18:07:59,15.08840462,0.0001415,53.2169,86.2704,91.5805,268.5349,5.3521e-05,5.64e-06,0.0,0 STARLINK-4509,1 53404U 22097S   23288.75554793  .00000564  00000-0  53521-4 0  9999,2 53404  53.2169  86.2704 0001415  91.5805 268.5349 15.08840462 66412,6917.879,95.438,540.723,538.765,0.0
53404.0,STARLINK-4509,PAYLOAD,2023-10-16 14:48:00,15.08835468,0.0001503,53.217,82.4063,84.877,275.2394,9.966e-05,1.298e-05,0.0,0 STARLINK-4509,1 53404U 22097S   23289.61667230  .00001298  00000-0  99660-4 0  9995,2 53404  53.2170  82.4063 0001503  84.8770 275.2394 15.08835468 66543,6917.894,95.438,540.799,538.719,0.0
53404.0,STARLINK-4509,PAYLOAD,2023-10-16 19:34:09,15.08843875,0.0001563,53.2167,81.5133,90.835,269.2821,7.3052e-05,8.75e-06,0.0,0 STARLINK-4509,1 53404U 22097S   23289.81538779  .00000875  00000-0  73052-4 0  9999,2 53404  53.2167  81.5133 0001563  90.8350 269.2821 15.08843875 66576,6917.869,95.437,540.815,538.652,0.0
53404.0,STARLINK-4509,PAYLOAD,2023-10-17 09:52:37,15.08839559,0.0001661,53.2169,78.8376,85.5711,274.5471,0.0001241,1.688e-05,0.0,0 STARLINK-4509,1 53404U 22097S   23290.41154998  .00001688  00000-0  12410-3 0  9997,2 53404  53.2169  78.8376 0001661  85.5711 274.5471 15.08839559 66661,6917.882,95.438,540.896,538.598,0.0
53404.0,STARLINK-4509,PAYLOAD,2023-10-17 19:24:56,15.08845429,0.0001515,53.2169,77.0542,87.2421,272.8745,0.00013972,1.937e-05,0.0,0 STARLINK-4509,1 53404U 22097S   23290.80898524  .00001937  00000-0  13972-3 0  9991,2 53404  53.2169  77.0542 0001515  87.2421 272.8745 15.08845429 66727,6917.864,95.437,540.777,538.681,0.0
53404.0,STARLINK-4509,PAYLOAD,2023-10-18 03:21:52,15.08842049,0.0001616,53.2154,75.5679,83.3976,276.72,7.1598e-05,8.52e-06,0.0,0 STARLINK-4509,1 53404U 22097S   23291.14018881  .00000852  00000-0  71598-4 0  9993,2 53404  53.2154  75.5679 0001616  83.3976 276.7200 15.08842049 66284,6917.874,95.437,540.857,538.621,0.0
53404.0,STARLINK-4509,PAYLOAD,2023-10-18 16:04:57,15.08840109,0.0001579,53.2165,73.1881,92.6863,267.431,6.0358e-05,6.73e-06,0.0,0 STARLINK-4509,1 53404U 22097S   23291.67011036  .00000673  00000-0  60358-4 0  9999,2 53404  53.2165  73.1881 0001579  92.6863 267.4310 15.08840109 66858,6917.88,95.438,540.837,538.653,0.0
53404.0,STARLINK-4509,PAYLOAD,2023-10-19 12:44:57,15.0884825,0.0001639,53.2163,69.3216,96.2731,263.8448,6.1534e-05,6.92e-06,0.0,0 STARLINK-4509,1 53404U 22097S   23292.53122356  .00000692  00000-0  61534-4 0  9991,2 53404  53.2163  69.3216 0001639  96.2731 263.8448 15.08848250 66987,6917.855,95.437,540.854,538.586,0.0
53404.0,STARLINK-4509,PAYLOAD,2023-10-19 19:06:29,15.08855208,0.0001877,53.2162,68.1314,102.5809,257.5393,0.00010999,1.463e-05,0.0,0 STARLINK-4509,1 53404U 22097S   23292.79617655  .00001463  00000-0  10999-3 0  9995,2 53404  53.2162  68.1314 0001877 102.5809 257.5393 15.08855208 66534,6917.834,95.437,540.997,538.4,0.0
53404.0,STARLINK-4509,PAYLOAD,2023-10-20 12:35:45,15.08834231,0.0001493,53.2167,64.8607,100.6063,259.5098,4.9665e-05,5.02e-06,0.0,0 STARLINK-4509,1 53404U 22097S   23293.52483303  .00000502  00000-0  49665-4 0  9994,2 53404  53.2167  64.8607 0001493 100.6063 259.5098 15.08834231 66641,6917.898,95.438,540.796,538.73,0.0
53404.0,STARLINK-4509,PAYLOAD,2023-10-20 18:57:17,15.08837594,0.0001615,53.2173,63.6704,106.9013,253.2156,4.2361e-05,3.86e-06,0.0,0 STARLINK-4509,1 53404U 22097S   23293.78979163  .00000386  00000-0  42361-4 0  9992,2 53404  53.2173  63.6704 0001615 106.9013 253.2156 15.08837594 67173,6917.888,95.438,540.87,538.636,0.0
53404.0,STARLINK-4509,PAYLOAD,2023-10-21 12:26:32,15.08842595,9.77e-05,53.2193,60.4041,41.1481,318.9584,-6.3439e-05,-1.297e-05,0.0,0 STARLINK-4509,1 53404U 22097S   23294.51843130 -.00001297  00000-0 -63439-4 0  9991,2 53404  53.2193  60.4041 0000977  41.1481 318.9584 15.08842595 67286,6917.872,95.437,540.413,539.062,0.0
53404.0,STARLINK-4509,PAYLOAD,2023-10-21 15:37:17,15.088529,0.0001251,53.2173,59.806,88.1071,272.0064,0.00014312,1.991e-05,0.0,0 STARLINK-4509,1 53404U 22097S   23294.65090191  .00001991  00000-0  14312-3 0  9991,2 53404  53.2173  59.8060 0001251  88.1071 272.0064 15.08852900 66811,6917.841,95.437,540.571,538.841,0.0
53404.0,STARLINK-4509,PAYLOAD,2023-10-22 01:09:37,15.08838378,0.0001235,53.217,58.02,86.925,273.1884,0.00017126,2.439e-05,0.0,0 STARLINK-4509,1 53404U 22097S   23295.04834926  .00002439  00000-0  17126-3 0  9991,2 53404  53.2170  58.0200 0001235  86.9250 273.1884 15.08838378 66873,6917.885,95.438,540.605,538.896,0.0
53404.0,STARLINK-4509,PAYLOAD,2023-10-22 12:17:20,15.0882367,0.0002143,53.2188,55.9397,85.8951,274.2286,-0.00011294,-2.084e-05,0.0,0 STARLINK-4509,1 53404U 22097S   23295.51204309 -.00002084  00000-0 -11294-3 0  9997,2 53404  53.2188  55.9397 0002143  85.8951 274.2286 15.08823670 66945,6917.93,95.439,541.278,538.313,0.0
53404.0,STARLINK-4509,PAYLOAD,2023-10-22 13:52:43,15.0883045,0.000148,53.2196,55.6421,90.3004,269.8158,4.6618e-05,4.54e-06,0.0,0 STARLINK-4509,1 53404U 22097S   23295.57828282  .00000454  00000-0  46618-4 0  9991,2 53404  53.2196  55.6421 0001480  90.3004 269.8158 15.08830450 67440,6917.91,95.438,540.798,538.751,0.0
53404.0,STARLINK-4509,PAYLOAD,2023-10-22 15:28:06,15.08827609,0.0001416,53.2184,55.3466,94.6191,265.4963,2.7684e-05,1.53e-06,0.0,0 STARLINK-4509,1 53404U 22097S   23295.64452539  .00000153  00000-0  27684-4 0  9995,2 53404  53.2184  55.3466 0001416  94.6191 265.4963 15.08827609 67455,6917.918,95.438,540.763,538.804,0.0
53404.0,STARLINK-4509,PAYLOAD,2023-10-23 01:00:25,15.0883416,0.0001197,53.2193,53.5614,88.7792,271.3338,9.6462e-05,1.247e-05,0.0,0 STARLINK-4509,1 53404U 22097S   23296.04196186  .00001247  00000-0  96462-4 0  9998,2 53404  53.2193  53.5614 0001197  88.7792 271.3338 15.08834160 67022,6917.898,95.438,540.591,538.935,0.0
